[
{
"CCSDS_OMM_VERS": "2.0",
"COMMENT": "GENERATED VIA SPACE-TRACK.ORG API",
"CREATION_DATE": "2025-03-19T22:36:20",
"ORIGINATOR": "18 SPCS",
"OBJECT_NAME": "COSMOS 2476 (GLONASS)",
"OBJECT_ID": "2011-064A",
"CENTER_NAME": "EARTH",
"REF_FRAME": "TEME",
"TIME_SYSTEM": "UTC",
"MEAN_ELEMENT_THEORY": "SGP4",
"EPOCH": "2025-03-19T08:36:05.535360",
"MEAN_MOTION": "2.13101638",
"ECCENTRICITY": "0.00247870",
"INCLINATION": "65.0174",
"RA_OF_ASC_NODE": "88.2555",
"ARG_OF_PERICENTER": "241.6868",
"MEAN_ANOMALY": "193.9899",
"EPHEMERIS_TYPE": "0",
"CLASSIFICATION_TYPE": "U",
"NORAD_CAT_ID": "37867",
"ELEMENT_SET_NO": "999",
"REV_AT_EPOCH": "10412",
"BSTAR": "0.00000000000000",
"MEAN_MOTION_DOT": "0.00000033",
"MEAN_MOTION_DDOT": "0.0000000000000",
"SEMIMAJOR_AXIS": "25508.053",
"PERIOD": "675.734",
"APOAPSIS": "19193.145",
"PERIAPSIS": "19066.692",
"OBJECT_TYPE": "PAYLOAD",
"RCS_SIZE": "LARGE",
"COUNTRY_CODE": "CIS",
"LAUNCH_DATE": "2011-11-04",
"SITE": "TTMTR",
"DECAY_DATE": null,
"FILE": "4674274",
"GP_ID": "283515972",
"TLE_LINE0": "0 COSMOS 2476 (GLONASS)",
"TLE_LINE1": "1 37867U 11064A   25078.35839740  .00000033  00000-0  00000+0 0  9999",
"TLE_LINE2": "2 37867  65.0174  88.2555 0024787 241.6868 193.9899  2.13101638104123"
},
{
"CCSDS_OMM_VERS": "2.0",
"COMMENT": "GENERATED VIA SPACE-TRACK.ORG API",
"CREATION_DATE": "2025-03-19T14:46:22",
"ORIGINATOR": "18 SPCS",
"OBJECT_NAME": "COSMOS 2544 (GLONASS)",
"OBJECT_ID": "2019-088A",
"CENTER_NAME": "EARTH",
"REF_FRAME": "TEME",
"TIME_SYSTEM": "UTC",
"MEAN_ELEMENT_THEORY": "SGP4",
"EPOCH": "2025-03-19T07:33:46.638432",
"MEAN_MOTION": "2.13102155",
"ECCENTRICITY": "0.00156660",
"INCLINATION": "65.3184",
"RA_OF_ASC_NODE": "88.9391",
"ARG_OF_PERICENTER": "261.0133",
"MEAN_ANOMALY": "98.8430",
"EPHEMERIS_TYPE": "0",
"CLASSIFICATION_TYPE": "U",
"NORAD_CAT_ID": "44850",
"ELEMENT_SET_NO": "999",
"REV_AT_EPOCH": "4100",
"BSTAR": "0.00000000000000",
"MEAN_MOTION_DOT": "0.00000034",
"MEAN_MOTION_DDOT": "0.0000000000000",
"SEMIMAJOR_AXIS": "25508.012",
"PERIOD": "675.732",
"APOAPSIS": "19169.838",
"PERIAPSIS": "19089.916",
"OBJECT_TYPE": "PAYLOAD",
"RCS_SIZE": "LARGE",
"COUNTRY_CODE": "CIS",
"LAUNCH_DATE": "2019-12-11",
"SITE": "PKMTR",
"DECAY_DATE": null,
"FILE": "4673969",
"GP_ID": "283480817",
"TLE_LINE0": "0 COSMOS 2544 (GLONASS)",
"TLE_LINE1": "1 44850U 19088A   25078.31512313  .00000034  00000-0  00000+0 0  9994",
"TLE_LINE2": "2 44850  65.3184  88.9391 0015666 261.0133  98.8430  2.13102155 41005"
},
{
"CCSDS_OMM_VERS": "2.0",
"COMMENT": "GENERATED VIA SPACE-TRACK.ORG API",
"CREATION_DATE": "2025-03-19T17:43:14",
"ORIGINATOR": "18 SPCS",
"OBJECT_NAME": "COSMOS 2436 (GLONASS)",
"OBJECT_ID": "2007-065C",
"CENTER_NAME": "EARTH",
"REF_FRAME": "TEME",
"TIME_SYSTEM": "UTC",
"MEAN_ELEMENT_THEORY": "SGP4",
"EPOCH": "2025-03-19T04:08:42.643392",
"MEAN_MOTION": "2.13100298",
"ECCENTRICITY": "0.00170140",
"INCLINATION": "64.3256",
"RA_OF_ASC_NODE": "207.3362",
"ARG_OF_PERICENTER": "5.4729",
"MEAN_ANOMALY": "356.0515",
"EPHEMERIS_TYPE": "0",
"CLASSIFICATION_TYPE": "U",
"NORAD_CAT_ID": "32395",
"ELEMENT_SET_NO": "999",
"REV_AT_EPOCH": "13403",
"BSTAR": "0.00000000000000",
"MEAN_MOTION_DOT": "0.00000038",
"MEAN_MOTION_DDOT": "0.0000000000000",
"SEMIMAJOR_AXIS": "25508.160",
"PERIOD": "675.738",
"APOAPSIS": "19173.425",
"PERIAPSIS": "19086.626",
"OBJECT_TYPE": "PAYLOAD",
"RCS_SIZE": "LARGE",
"COUNTRY_CODE": "CIS",
"LAUNCH_DATE": "2007-12-25",
"SITE": "TTMTR",
"DECAY_DATE": null,
"FILE": "4674121",
"GP_ID": "283494250",
"TLE_LINE0": "0 COSMOS 2436 (GLONASS)",
"TLE_LINE1": "1 32395U 07065C   25078.17271578  .00000038  00000-0  00000-0 0  9991",
"TLE_LINE2": "2 32395  64.3256 207.3362 0017014   5.4729 356.0515  2.13100298134035"
},
{
"CCSDS_OMM_VERS": "2.0",
"COMMENT": "GENERATED VIA SPACE-TRACK.ORG API",
"CREATION_DATE": "2025-03-19T22:56:18",
"ORIGINATOR": "18 SPCS",
"OBJECT_NAME": "COSMOS 2492 (GLONASS)",
"OBJECT_ID": "2014-012A",
"CENTER_NAME": "EARTH",
"REF_FRAME": "TEME",
"TIME_SYSTEM": "UTC",
"MEAN_ELEMENT_THEORY": "SGP4",
"EPOCH": "2025-03-19T03:45:14.465088",
"MEAN_MOTION": "2.13103285",
"ECCENTRICITY": "0.00135030",
"INCLINATION": "65.5485",
"RA_OF_ASC_NODE": "329.3615",
"ARG_OF_PERICENTER": "327.8588",
"MEAN_ANOMALY": "32.1162",
"EPHEMERIS_TYPE": "0",
"CLASSIFICATION_TYPE": "U",
"NORAD_CAT_ID": "39620",
"ELEMENT_SET_NO": "999",
"REV_AT_EPOCH": "8554",
"BSTAR": "0.00000000000000",
"MEAN_MOTION_DOT": "-0.00000056",
"MEAN_MOTION_DDOT": "0.0000000000000",
"SEMIMAJOR_AXIS": "25507.922",
"PERIOD": "675.729",
"APOAPSIS": "19164.230",
"PERIAPSIS": "19095.344",
"OBJECT_TYPE": "PAYLOAD",
"RCS_SIZE": "LARGE",
"COUNTRY_CODE": "CIS",
"LAUNCH_DATE": "2014-03-23",
"SITE": "PKMTR",
"DECAY_DATE": null,
"FILE": "4674342",
"GP_ID": "283518958",
"TLE_LINE0": "0 COSMOS 2492 (GLONASS)",
"TLE_LINE1": "1 39620U 14012A   25078.15641742 -.00000056  00000-0  00000+0 0  9991",
"TLE_LINE2": "2 39620  65.5485 329.3615 0013503 327.8588  32.1162  2.13103285 85549"
},
{
"CCSDS_OMM_VERS": "2.0",
"COMMENT": "GENERATED VIA SPACE-TRACK.ORG API",
"CREATION_DATE": "2025-03-19T17:43:14",
"ORIGINATOR": "18 SPCS",
"OBJECT_NAME": "COSMOS 2514 (GLONASS)",
"OBJECT_ID": "2016-008A",
"CENTER_NAME": "EARTH",
"REF_FRAME": "TEME",
"TIME_SYSTEM": "UTC",
"MEAN_ELEMENT_THEORY": "SGP4",
"EPOCH": "2025-03-19T02:27:43.574688",
"MEAN_MOTION": "2.13102777",
"ECCENTRICITY": "0.00086560",
"INCLINATION": "65.2774",
"RA_OF_ASC_NODE": "328.5866",
"ARG_OF_PERICENTER": "211.8230",
"MEAN_ANOMALY": "148.1819",
"EPHEMERIS_TYPE": "0",
"CLASSIFICATION_TYPE": "U",
"NORAD_CAT_ID": "41330",
"ELEMENT_SET_NO": "999",
"REV_AT_EPOCH": "7092",
"BSTAR": "0.00000000000000",
"MEAN_MOTION_DOT": "-0.00000055",
"MEAN_MOTION_DDOT": "0.0000000000000",
"SEMIMAJOR_AXIS": "25507.962",
"PERIOD": "675.730",
"APOAPSIS": "19151.907",
"PERIAPSIS": "19107.748",
"OBJECT_TYPE": "PAYLOAD",
"RCS_SIZE": "LARGE",
"COUNTRY_CODE": "CIS",
"LAUNCH_DATE": "2016-02-07",
"SITE": "PKMTR",
"DECAY_DATE": null,
"FILE": "4674121",
"GP_ID": "283499486",
"TLE_LINE0": "0 COSMOS 2514 (GLONASS)",
"TLE_LINE1": "1 41330U 16008A   25078.10258767 -.00000055  00000-0  00000-0 0  9995",
"TLE_LINE2": "2 41330  65.2774 328.5866 0008656 211.8230 148.1819  2.13102777 70924"
},
{
"CCSDS_OMM_VERS": "2.0",
"COMMENT": "GENERATED VIA SPACE-TRACK.ORG API",
"CREATION_DATE": "2025-03-19T06:36:35",
"ORIGINATOR": "18 SPCS",
"OBJECT_NAME": "COSMOS 2477 (GLONASS)",
"OBJECT_ID": "2011-064B",
"CENTER_NAME": "EARTH",
"REF_FRAME": "TEME",
"TIME_SYSTEM": "UTC",
"MEAN_ELEMENT_THEORY": "SGP4",
"EPOCH": "2025-03-19T00:32:59.830944",
"MEAN_MOTION": "2.13103092",
"ECCENTRICITY": "0.00219870",
"INCLINATION": "65.0241",
"RA_OF_ASC_NODE": "88.3420",
"ARG_OF_PERICENTER": "243.2285",
"MEAN_ANOMALY": "114.5823",
"EPHEMERIS_TYPE": "0",
"CLASSIFICATION_TYPE": "U",
"NORAD_CAT_ID": "37868",
"ELEMENT_SET_NO": "999",
"REV_AT_EPOCH": "10405",
"BSTAR": "0.00000000000000",
"MEAN_MOTION_DOT": "0.00000031",
"MEAN_MOTION_DDOT": "0.0000000000000",
"SEMIMAJOR_AXIS": "25507.937",
"PERIOD": "675.729",
"APOAPSIS": "19185.887",
"PERIAPSIS": "19073.718",
"OBJECT_TYPE": "PAYLOAD",
"RCS_SIZE": "LARGE",
"COUNTRY_CODE": "CIS",
"LAUNCH_DATE": "2011-11-04",
"SITE": "TTMTR",
"DECAY_DATE": null,
"FILE": "4673593",
"GP_ID": "283470688",
"TLE_LINE0": "0 COSMOS 2477 (GLONASS)",
"TLE_LINE1": "1 37868U 11064B   25078.02291471  .00000031  00000-0  00000+0 0  9995",
"TLE_LINE2": "2 37868  65.0241  88.3420 0021987 243.2285 114.5823  2.13103092104055"
},
{
"CCSDS_OMM_VERS": "2.0",
"COMMENT": "GENERATED VIA SPACE-TRACK.ORG API",
"CREATION_DATE": "2025-03-19T17:43:14",
"ORIGINATOR": "18 SPCS",
"OBJECT_NAME": "COSMOS 2559 (GLONASS)",
"OBJECT_ID": "2022-130A",
"CENTER_NAME": "EARTH",
"REF_FRAME": "TEME",
"TIME_SYSTEM": "UTC",
"MEAN_ELEMENT_THEORY": "SGP4",
"EPOCH": "2025-03-18T20:52:33.613536",
"MEAN_MOTION": "2.13101375",
"ECCENTRICITY": "0.00053560",
"INCLINATION": "64.5221",
"RA_OF_ASC_NODE": "330.5938",
"ARG_OF_PERICENTER": "229.4205",
"MEAN_ANOMALY": "130.5887",
"EPHEMERIS_TYPE": "0",
"CLASSIFICATION_TYPE": "U",
"NORAD_CAT_ID": "54031",
"ELEMENT_SET_NO": "999",
"REV_AT_EPOCH": "1898",
"BSTAR": "0.00000000000000",
"MEAN_MOTION_DOT": "-0.00000060",
"MEAN_MOTION_DDOT": "0.0000000000000",
"SEMIMAJOR_AXIS": "25508.074",
"PERIOD": "675.735",
"APOAPSIS": "19143.601",
"PERIAPSIS": "19116.277",
"OBJECT_TYPE": "PAYLOAD",
"RCS_SIZE": "LARGE",
"COUNTRY_CODE": "CIS",
"LAUNCH_DATE": "2022-10-10",
"SITE": "PKMTR",
"DECAY_DATE": null,
"FILE": "4674121",
"GP_ID": "283506294",
"TLE_LINE0": "0 COSMOS 2559 (GLONASS)",
"TLE_LINE1": "1 54031U 22130A   25077.86983349 -.00000060  00000-0  00000-0 0  9999",
"TLE_LINE2": "2 54031  64.5221 330.5938 0005356 229.4205 130.5887  2.13101375 18980"
},
{
"CCSDS_OMM_VERS": "2.0",
"COMMENT": "GENERATED VIA SPACE-TRACK.ORG API",
"CREATION_DATE": "2025-03-19T06:46:34",
"ORIGINATOR": "18 SPCS",
"OBJECT_NAME": "COSMOS 2500 (GLONASS)",
"OBJECT_ID": "2014-032A",
"CENTER_NAME": "EARTH",
"REF_FRAME": "TEME",
"TIME_SYSTEM": "UTC",
"MEAN_ELEMENT_THEORY": "SGP4",
"EPOCH": "2025-03-18T20:42:33.126624",
"MEAN_MOTION": "2.13106106",
"ECCENTRICITY": "0.00046660",
"INCLINATION": "65.4850",
"RA_OF_ASC_NODE": "329.1550",
"ARG_OF_PERICENTER": "202.4470",
"MEAN_ANOMALY": "157.5899",
"EPHEMERIS_TYPE": "0",
"CLASSIFICATION_TYPE": "U",
"NORAD_CAT_ID": "40001",
"ELEMENT_SET_NO": "999",
"REV_AT_EPOCH": "8375",
"BSTAR": "0.00000000000000",
"MEAN_MOTION_DOT": "-0.00000056",
"MEAN_MOTION_DDOT": "0.0000000000000",
"SEMIMAJOR_AXIS": "25507.697",
"PERIOD": "675.720",
"APOAPSIS": "19141.464",
"PERIAPSIS": "19117.660",
"OBJECT_TYPE": "PAYLOAD",
"RCS_SIZE": "LARGE",
"COUNTRY_CODE": "CIS",
"LAUNCH_DATE": "2014-06-14",
"SITE": "PKMTR",
"DECAY_DATE": null,
"FILE": "4673612",
"GP_ID": "283472996",
"TLE_LINE0": "0 COSMOS 2500 (GLONASS)",
"TLE_LINE1": "1 40001U 14032A   25077.86288341 -.00000056  00000-0  00000+0 0  9997",
"TLE_LINE2": "2 40001  65.4850 329.1550 0004666 202.4470 157.5899  2.13106106 83758"
}
]